STARLINK-1152           
1 45096U 20006BE  26068.59806897  .00079483  00000+0  20481-2 0  9993
2 45096  53.0397 206.9193 0003727 207.5385 152.5421 15.38522546337578
STARLINK-1821           
1 46718U 20073BA  26068.72991936  .00083201  00000+0  21811-2 0  9994
2 46718  53.0488 226.3874 0004148 156.9798 203.1391 15.37970474297352
